[
  {
    "OBJECT_NAME": "STARLINK-5805",
    "OBJECT_ID": "2023-083AN",
    "EPOCH": "2025-05-17T13:29:21.810336",
    "MEAN_MOTION": 15.02533901,
    "ECCENTRICITY": 7.9e-05,
    "INCLINATION": 43.0017,
    "RA_OF_ASC_NODE": 237.9783,
    "ARG_OF_PERICENTER": 270.6275,
    "MEAN_ANOMALY": 89.4477,
    "EPHEMERIS_TYPE": 0,
    "CLASSIFICATION_TYPE": "U",
    "NORAD_CAT_ID": 56912,
    "ELEMENT_SET_NO": 999,
    "REV_AT_EPOCH": 10727,
    "BSTAR": 5.118e-05,
    "MEAN_MOTION_DOT": 4.88e-06,
    "MEAN_MOTION_DDOT": 0
  },
  {
    "OBJECT_NAME": "STARLINK-5950",
    "OBJECT_ID": "2023-083AP",
    "EPOCH": "2025-05-17T13:48:33.682176",
    "MEAN_MOTION": 15.02525238,
    "ECCENTRICITY": 0.0001572,
    "INCLINATION": 43.0028,
    "RA_OF_ASC_NODE": 238.0749,
    "ARG_OF_PERICENTER": 275.3628,
    "MEAN_ANOMALY": 84.7035,
    "EPHEMERIS_TYPE": 0,
    "CLASSIFICATION_TYPE": "U",
    "NORAD_CAT_ID": 56913,
    "ELEMENT_SET_NO": 999,
    "REV_AT_EPOCH": 10727,
    "BSTAR": 0.00022285,
    "MEAN_MOTION_DOT": 2.807e-05,
    "MEAN_MOTION_DDOT": 0
  },
  {
    "OBJECT_NAME": "STARLINK-5961",
    "OBJECT_ID": "2023-083AQ",
    "EPOCH": "2025-05-17T16:31:13.612800",
    "MEAN_MOTION": 15.02534935,
    "ECCENTRICITY": 0.0001817,
    "INCLINATION": 43.003,
    "RA_OF_ASC_NODE": 237.2014,
    "ARG_OF_PERICENTER": 263.2779,
    "MEAN_ANOMALY": 96.7857,
    "EPHEMERIS_TYPE": 0,
    "CLASSIFICATION_TYPE": "U",
    "NORAD_CAT_ID": 56914,
    "ELEMENT_SET_NO": 999,
    "REV_AT_EPOCH": 10649,
    "BSTAR": 5.1825e-05,
    "MEAN_MOTION_DOT": 4.96e-06,
    "MEAN_MOTION_DDOT": 0
  },
  {
    "OBJECT_NAME": "STARLINK-5965",
    "OBJECT_ID": "2023-083AR",
    "EPOCH": "2025-05-17T13:38:56.894784",
    "MEAN_MOTION": 15.02537362,
    "ECCENTRICITY": 0.0001157,
    "INCLINATION": 43.0022,
    "RA_OF_ASC_NODE": 238.0243,
    "ARG_OF_PERICENTER": 272.2244,
    "MEAN_ANOMALY": 87.8466,
    "EPHEMERIS_TYPE": 0,
    "CLASSIFICATION_TYPE": "U",
    "NORAD_CAT_ID": 56915,
    "ELEMENT_SET_NO": 999,
    "REV_AT_EPOCH": 10727,
    "BSTAR": 1.2507e-05,
    "MEAN_MOTION_DOT": -3.5e-07,
    "MEAN_MOTION_DDOT": 0
  },
  {
    "OBJECT_NAME": "STARLINK-5973",
    "OBJECT_ID": "2023-083AS",
    "EPOCH": "2025-05-17T12:55:47.810784",
    "MEAN_MOTION": 15.02534645,
    "ECCENTRICITY": 0.0001497,
    "INCLINATION": 43.0042,
    "RA_OF_ASC_NODE": 237.8016,
    "ARG_OF_PERICENTER": 272.1016,
    "MEAN_ANOMALY": 87.9655,
    "EPHEMERIS_TYPE": 0,
    "CLASSIFICATION_TYPE": "U",
    "NORAD_CAT_ID": 56916,
    "ELEMENT_SET_NO": 999,
    "REV_AT_EPOCH": 10724,
    "BSTAR": 6.3731e-05,
    "MEAN_MOTION_DOT": 6.57e-06,
    "MEAN_MOTION_DDOT": 0
  },
  {
    "OBJECT_NAME": "STARLINK-5971",
    "OBJECT_ID": "2023-083AT",
    "EPOCH": "2025-05-16T16:40:06.207456",
    "MEAN_MOTION": 15.02538707,
    "ECCENTRICITY": 0.0001624,
    "INCLINATION": 43.0047,
    "RA_OF_ASC_NODE": 242.6498,
    "ARG_OF_PERICENTER": 271.4946,
    "MEAN_ANOMALY": 88.571,
    "EPHEMERIS_TYPE": 0,
    "CLASSIFICATION_TYPE": "U",
    "NORAD_CAT_ID": 56917,
    "ELEMENT_SET_NO": 999,
    "REV_AT_EPOCH": 10714,
    "BSTAR": 6.4725e-06,
    "MEAN_MOTION_DOT": -1.16e-06,
    "MEAN_MOTION_DDOT": 0
  },
  {
    "OBJECT_NAME": "STARLINK-5951",
    "OBJECT_ID": "2023-083AU",
    "EPOCH": "2025-05-17T14:45:54.469728",
    "MEAN_MOTION": 15.02537183,
    "ECCENTRICITY": 0.0001559,
    "INCLINATION": 43.0036,
    "RA_OF_ASC_NODE": 237.5121,
    "ARG_OF_PERICENTER": 266.2123,
    "MEAN_ANOMALY": 93.8541,
    "EPHEMERIS_TYPE": 0,
    "CLASSIFICATION_TYPE": "U",
    "NORAD_CAT_ID": 56918,
    "ELEMENT_SET_NO": 999,
    "REV_AT_EPOCH": 10648,
    "BSTAR": 0.00011792,
    "MEAN_MOTION_DOT": 1.39e-05,
    "MEAN_MOTION_DDOT": 0
  },
  {
    "OBJECT_NAME": "STARLINK-5966",
    "OBJECT_ID": "2023-083AV",
    "EPOCH": "2025-05-17T13:16:34.824576",
    "MEAN_MOTION": 15.02534875,
    "ECCENTRICITY": 0.0001383,
    "INCLINATION": 43.0031,
    "RA_OF_ASC_NODE": 237.9095,
    "ARG_OF_PERICENTER": 261.2091,
    "MEAN_ANOMALY": 98.8595,
    "EPHEMERIS_TYPE": 0,
    "CLASSIFICATION_TYPE": "U",
    "NORAD_CAT_ID": 56919,
    "ELEMENT_SET_NO": 999,
    "REV_AT_EPOCH": 10727,
    "BSTAR": 5.8578e-05,
    "MEAN_MOTION_DOT": 5.88e-06,
    "MEAN_MOTION_DDOT": 0
  },
  {
    "OBJECT_NAME": "STARLINK-5960",
    "OBJECT_ID": "2023-083AW",
    "EPOCH": "2025-05-17T06:37:40.782144",
    "MEAN_MOTION": 15.02535819,
    "ECCENTRICITY": 0.0001157,
    "INCLINATION": 43.005,
    "RA_OF_ASC_NODE": 239.2661,
    "ARG_OF_PERICENTER": 267.6983,
    "MEAN_ANOMALY": 92.3727,
    "EPHEMERIS_TYPE": 0,
    "CLASSIFICATION_TYPE": "U",
    "NORAD_CAT_ID": 56920,
    "ELEMENT_SET_NO": 999,
    "REV_AT_EPOCH": 10723,
    "BSTAR": 5.4442e-06,
    "MEAN_MOTION_DOT": -1.3e-06,
    "MEAN_MOTION_DDOT": 0
  },
  {
    "OBJECT_NAME": "STARLINK-5958",
    "OBJECT_ID": "2023-083AX",
    "EPOCH": "2025-05-17T13:14:57.065568",
    "MEAN_MOTION": 15.02586113,
    "ECCENTRICITY": 0.0001414,
    "INCLINATION": 43.002,
    "RA_OF_ASC_NODE": 237.8978,
    "ARG_OF_PERICENTER": 259.472,
    "MEAN_ANOMALY": 100.5963,
    "EPHEMERIS_TYPE": 0,
    "CLASSIFICATION_TYPE": "U",
    "NORAD_CAT_ID": 56921,
    "ELEMENT_SET_NO": 999,
    "REV_AT_EPOCH": 10727,
    "BSTAR": -0.00051561,
    "MEAN_MOTION_DOT": -7.171e-05,
    "MEAN_MOTION_DDOT": 0
  },
  {
    "OBJECT_NAME": "STARLINK-5937",
    "OBJECT_ID": "2023-083AY",
    "EPOCH": "2025-05-17T07:54:13.810464",
    "MEAN_MOTION": 15.02536443,
    "ECCENTRICITY": 0.0001384,
    "INCLINATION": 43.0044,
    "RA_OF_ASC_NODE": 238.8101,
    "ARG_OF_PERICENTER": 267.4694,
    "MEAN_ANOMALY": 92.5989,
    "EPHEMERIS_TYPE": 0,
    "CLASSIFICATION_TYPE": "U",
    "NORAD_CAT_ID": 56922,
    "ELEMENT_SET_NO": 999,
    "REV_AT_EPOCH": 10724,
    "BSTAR": 2.1196e-05,
    "MEAN_MOTION_DOT": 8.3e-07,
    "MEAN_MOTION_DDOT": 0
  },
  {
    "OBJECT_NAME": "STARLINK-5952",
    "OBJECT_ID": "2023-083AZ",
    "EPOCH": "2025-05-17T13:05:23.532864",
    "MEAN_MOTION": 15.02532835,
    "ECCENTRICITY": 0.0001782,
    "INCLINATION": 43.0049,
    "RA_OF_ASC_NODE": 237.8474,
    "ARG_OF_PERICENTER": 266.4882,
    "MEAN_ANOMALY": 93.5757,
    "EPHEMERIS_TYPE": 0,
    "CLASSIFICATION_TYPE": "U",
    "NORAD_CAT_ID": 56923,
    "ELEMENT_SET_NO": 999,
    "REV_AT_EPOCH": 10727,
    "BSTAR": 9.7189e-06,
    "MEAN_MOTION_DOT": -7.2e-07,
    "MEAN_MOTION_DDOT": 0
  },
  {
    "OBJECT_NAME": "STARLINK-5731",
    "OBJECT_ID": "2023-083BA",
    "EPOCH": "2025-05-17T14:18:44.329824",
    "MEAN_MOTION": 15.02537183,
    "ECCENTRICITY": 0.0001388,
    "INCLINATION": 43.0036,
    "RA_OF_ASC_NODE": 237.3711,
    "ARG_OF_PERICENTER": 271.544,
    "MEAN_ANOMALY": 88.5243,
    "EPHEMERIS_TYPE": 0,
    "CLASSIFICATION_TYPE": "U",
    "NORAD_CAT_ID": 56924,
    "ELEMENT_SET_NO": 999,
    "REV_AT_EPOCH": 10648,
    "BSTAR": 7.6407e-05,
    "MEAN_MOTION_DOT": 8.29e-06,
    "MEAN_MOTION_DDOT": 0
  },
  {
    "OBJECT_NAME": "STARLINK-5733",
    "OBJECT_ID": "2023-083BB",
    "EPOCH": "2025-05-17T07:59:01.490496",
    "MEAN_MOTION": 15.02534507,
    "ECCENTRICITY": 0.0002,
    "INCLINATION": 43.0039,
    "RA_OF_ASC_NODE": 238.8343,
    "ARG_OF_PERICENTER": 267.4451,
    "MEAN_ANOMALY": 92.6163,
    "EPHEMERIS_TYPE": 0,
    "CLASSIFICATION_TYPE": "U",
    "NORAD_CAT_ID": 56925,
    "ELEMENT_SET_NO": 999,
    "REV_AT_EPOCH": 10724,
    "BSTAR": 4.2812e-05,
    "MEAN_MOTION_DOT": 3.75e-06,
    "MEAN_MOTION_DDOT": 0
  }
]