STARLINK-5805           
1 56912U 23083AN  25137.56205799  .00000488  00000+0  51180-4 0  9998
2 56912  43.0017 237.9783 0000790 270.6275  89.4477 15.02533901107279
STARLINK-5950           
1 56913U 23083AP  25137.57538984  .00002807  00000+0  22285-3 0  9995
2 56913  43.0028 238.0749 0001572 275.3628  84.7035 15.02525238107271
STARLINK-5961           
1 56914U 23083AQ  25137.68835200  .00000496  00000+0  51825-4 0  9994
2 56914  43.0030 237.2014 0001817 263.2779  96.7857 15.02534935106498
STARLINK-5965           
1 56915U 23083AR  25137.56871406 -.00000035  00000+0  12507-4 0  9994
2 56915  43.0022 238.0243 0001157 272.2244  87.8466 15.02537362107278
STARLINK-5973           
1 56916U 23083AS  25137.53874781  .00000657  00000+0  63731-4 0  9995
2 56916  43.0042 237.8016 0001497 272.1016  87.9655 15.02534645107248
STARLINK-5971           
1 56917U 23083AT  25136.69451629 -.00000116  00000+0  64725-5 0  9990
2 56917  43.0047 242.6498 0001624 271.4946  88.5710 15.02538707107149
STARLINK-5951           
1 56918U 23083AU  25137.61521377  .00001390  00000+0  11792-3 0  9990
2 56918  43.0036 237.5121 0001559 266.2123  93.8541 15.02537183106484
STARLINK-5966           
1 56919U 23083AV  25137.55318084  .00000588  00000+0  58578-4 0  9995
2 56919  43.0031 237.9095 0001383 261.2091  98.8595 15.02534875107275
STARLINK-5960           
1 56920U 23083AW  25137.27616646 -.00000130  00000+0  54442-5 0  9992
2 56920  43.0050 239.2661 0001157 267.6983  92.3727 15.02535819107232
STARLINK-5958           
1 56921U 23083AX  25137.55204937 -.00007171  00000+0 -51561-3 0  9990
2 56921  43.0020 237.8978 0001414 259.4720 100.5963 15.02586113107270
STARLINK-5937           
1 56922U 23083AY  25137.32932651  .00000083  00000+0  21196-4 0  9992
2 56922  43.0044 238.8101 0001384 267.4694  92.5989 15.02536443107247
STARLINK-5952           
1 56923U 23083AZ  25137.54541126 -.00000072  00000+0  97189-5 0  9995
2 56923  43.0049 237.8474 0001782 266.4882  93.5757 15.02532835107273
STARLINK-5731           
1 56924U 23083BA  25137.59634641  .00000829  00000+0  76407-4 0  9994
2 56924  43.0036 237.3711 0001388 271.5440  88.5243 15.02537183106485
STARLINK-5733           
1 56925U 23083BB  25137.33265614  .00000375  00000+0  42812-4 0  9996
2 56925  43.0039 238.8343 0002000 267.4451  92.6163 15.02534507107243
